[
    {
        "Altitude(m)": 611965.2121337068,
        "Argument of Periapsis(deg)": 0.0,
        "Eccentricity": 0.0,
        "Inclination(deg)": 60.0,
        "Latitude(deg)": 59.14024273457063,
        "Longitude(deg)": 23.9696359082729,
        "Mean Anomaly(deg)": 81.8182,
        "RAAN(deg)": 50.0,
        "Satellite Name": "Test1 225",
        "Satellite Number": 225,
        "Semi-Major Axis(m)": 6980739.136638005,
        "Time(s)": 0
    },
    {
        "Altitude(m)": 611995.8382713713,
        "Argument of Periapsis(deg)": 0.00010418945913296404,
        "Eccentricity": 0.0,
        "Inclination(deg)": 60.0,
        "Latitude(deg)": 59.283344860058726,
        "Longitude(deg)": 25.10299977989358,
        "Mean Anomaly(deg)": 82.43830614546184,
        "RAAN(deg)": 49.99957995086026,
        "Satellite Name": "Test1 225",
        "Satellite Number": 225,
        "Semi-Major Axis(m)": 6980739.136638005,
        "Time(s)": 10
    }
]